#cP2022  3 23 12  0  0.00000000     576 d+D   IGb14 EXT AIUB
## 2202 302400.00000000   300.00000000 59661 0.5000000000000
+   76   G01G02G03G04G05G06G07G08G09G10G11G12G13G14G15G16G17
+        G18G19G20G21G22G23G24G25G26G27G28G29G30G31G32R01R02
+        R03R04R05R07R08R09R12R13R14R15R17R18R19R20R21R22R24
+        E01E02E03E04E05E07E08E10E11E12E13E14E15E18E19E21E24
+        E25E26E27E30E31E33E34E36  0  0  0  0  0  0  0  0  0
++         6  7  6  8  7  6  7  6  6  5  8  7  7  7  7  7  8
++         8  7  7  7  7  6  6  5  6  6  7  7  6  6  6  8  7
++         7  7  7  7  7  7  7  8  7  7  8  7  8  8  8  8  7
++         6  6  6  6  7  6  5  7  7  7  6  6  6  7  6  6  6
++         6  7  6  6  6  6  6  6  0  0  0  0  0  0  0  0  0
%c M  cc GPS ccc cccc cccc cccc cccc ccccc ccccc ccccc ccccc
%c cc cc ccc ccc cccc cccc cccc cccc ccccc ccccc ccccc ccccc
%f  1.2500000  1.025000000  0.00000000000  0.000000000000000
%f  0.0000000  0.000000000  0.00000000000  0.000000000000000
%i    0    0    0    0      0      0      0      0         0
%i    0    0    0    0      0      0      0      0         0
/* Center for Orbit Determination in Europe (CODE)          
/* Ultra-rapid GRE orbits starting year-day 22082 12 hour   
/* Observed/predicted: 24/24 hours (data used up to 083L)   
/* PCV:IGS14      OL/AL:FES2014b NONE     YN ORB:CoN CLK:BRD
*  2022  3 25  9 50  0.00000000
PG01 -17537.921511  -6529.076459  18703.504820    400.654054               P   P
PG02  14944.676616  21823.037408   -628.137825   -652.617449               P   P
PG03 -17934.173700   4988.889727  18797.993268   -178.711619               P   P
PG04 -26579.996868   -713.126005   -941.249146   -181.124670               P   P
PG05  11066.171901  11205.076374 -21530.959817    -75.910368               P   P
PG06   3313.998779  23194.591539  12499.414421    243.188646               P   P
PG07 -11357.635042  10601.348341 -21102.767752    317.681041               P   P
PG08 -24286.575345  -6334.871937  -9250.508116    -61.213720               P   P
PG09 -22789.843205   7959.381372 -11179.022156   -347.817319               P   P
PG10  10891.017994 -23722.469677   4111.526998   -357.610508               P   P
PG11  12837.604466  23168.354404  -2084.943363    -55.913385               P   P
PG12  17071.897484   -397.990153  20039.290587   -190.155587               P   P
PG13  17938.050505  13070.760953 -14862.916999    282.705580               P   P
PG14 -12546.808973  23156.086575   3094.765107    -97.071139               P   P
PG15  25002.778349   3982.444599  -8951.086631    -74.117155               P   P
PG16  -6534.137373 -15312.813010 -20856.473537   -484.562949               P   P
PG17  -8994.346255  13672.883109  21362.310524    591.772766               P   P
PG18  11136.568200 -10597.957559 -21651.439926    211.738530               P   P
PG19   -570.777577  14737.654388  21833.658642    135.581631               P   P
PG20      0.000000      0.000000      0.000000 999999.999999               P   P
PG21 -19586.272963 -14746.983447  11661.015810    159.785506               P   P
PG22  -2921.735880 -15552.275633  21760.393196    232.880680               P   P
PG23  16548.392645 -19473.968514  -7059.772746     -9.682549               P   P
PG24  19654.472343   9448.303089  15138.230843    264.598937               P   P
PG25  18477.812914 -13951.575900  12472.646759    303.027884               P   P
PG26   1485.602600 -23050.427881 -12919.204208    193.522418               P   P
PG27 -15510.764909 -12490.912436 -17972.741582    164.912613               P   P
PG28  -6852.931114  23121.329301  11900.277457    374.799445               P   P
PG29  24181.765572  -4558.575750 -10122.412392   -495.408118               P   P
PG30  -5249.861495  18530.096465 -18113.845503   -520.512099               P   P
PG31  -4656.729591 -23912.481870   9868.541159   -170.478820               P   P
PG32   4775.343058 -15045.490494  21474.716092    -91.653280               P   P
PR01    459.582135  11875.049113 -22562.414342      7.351860               P   P
PR02  18287.292713    793.168056 -17687.374853    513.437204               P   P
PR03  23428.443209  -9748.302143  -2247.506744     53.668395               P   P
PR04  15498.747914 -14466.962503  14209.226875    133.560469               P   P
PR05   -982.468353 -11305.133922  22858.778863     89.860853               P   P
PR07 -23426.692718  10026.436606   1655.678312     33.103468               P   P
PR08 -15411.645250  14558.652926 -14141.773402    -64.210035               P   P
PR09  -9868.560893 -10026.801297 -21281.227290     46.176101               P   P
PR12   2442.480885  23722.977755   9101.352376     17.574057               P   P
PR13   9271.387253  11205.510340  20936.112834    -20.007492               P   P
PR14  10966.407016  -9298.581025  21079.141663     75.769109               P   P
PR15   6116.001994 -23192.627371   8694.053456     97.326003               P   P
PR17  17495.389338   2122.220858 -18446.878694    512.283125               P   P
PR18   4126.804141  -9819.508368 -23166.647145    111.386796               P   P
PR19  -9937.096924 -16721.564374 -16504.799599   -182.819133               P   P
PR20 -20889.358036 -14452.519343   2612.474482    -67.301095               P   P
PR21 -16557.764931  -1136.662636  19362.735001   -288.027220               P   P
PR22  -3472.054604  10200.878231  23098.204203   -172.763060               P   P
PR24  21340.289090  13591.966105  -3253.619917     86.013645               P   P
PE01 -19321.691681   9465.384012 -20337.614086   -603.479183               P   P
PE02  19318.300562  -9611.061664  20247.024777    288.494812               P   P
PE03  29085.328333  -4963.498510   2436.346892   -540.971165               P   P
PE04 -17433.177238  15100.700771 -18544.526171   -992.046589               P   P
PE05  23855.880801   8299.174032 -15427.004909   -197.122380               P   P
PE07  -4821.186097 -16551.112103  24070.922558   -651.830361               P   P
PE08  17048.441710 -15178.772020  18854.890639   -500.994538               P   P
PE10   2157.350933  22895.119153  18628.910772   -502.558760               P   P
PE11  10705.035045  25589.728531  10293.106180   4140.060915               P   P
PE12  -6526.641933  16792.392298  23480.159609   4696.282899               P   P
PE13 -10288.739345 -25517.863245 -10929.205748    427.543102               P   P
PE14  27434.738706   6499.381078   5260.264280  -1790.417346               P   P
PE15   6522.564090 -16674.248112 -23566.684574    755.704830               P   P
PE18 -18647.460612 -14701.658877 -15546.886857  -1643.377604               P   P
PE19 -29421.073328   3275.556810    -78.286807  -1894.981115               P   P
PE21 -13305.532254 -10641.361402 -24210.157220   -724.547866               P   P
PE24  -1758.710998  26364.057218  13353.630728   -524.355106               P   P
PE25  13146.348809  10927.808923  24165.952148   -568.016919               P   P
PE26 -21164.537935 -18675.245098   8929.994932   -952.609976               P   P
PE27    679.833558 -25845.957837 -14400.449115   -261.017457               P   P
PE30  14786.173016 -25179.891250   4772.727400   -376.612867               P   P
PE31 -14151.265480  25724.698542  -3799.615830   -494.054129               P   P
PE33 -19427.274163  -1978.833330  22254.936898   -458.258868               P   P
PE34  19340.506175   1721.346889 -22345.701928   -508.573902               P   P
PE36  20933.143747  19311.914554  -8032.474199   -350.180720               P   P
EOF
